STARLINK-32705          
1 62479U 24254T   26068.18665754  .00028904  00000+0  10549-2 0  9992
2 62479  43.0028  11.6338 0001402 251.0494 109.0206 15.27607131 67500
TEVEL2-9                
1 63237U 25052AD  26068.70229538  .00018694  00000+0  67240-3 0  9992
2 63237  97.4057 324.3929 0007990 124.2475 235.9522 15.28633834 54816
